{
    "links": {
        "self": "http://www.neowsapp.com/rest/v1/neo/3596683?api_key=iIulBulltgU6a56xZRHN4H3l9WmuAYTsLGpBGhQ2"
    },
    "id": "3596683",
    "neo_reference_id": "3596683",
    "name": "(2012 BM77)",
    "designation": "2012 BM77",
    "nasa_jpl_url": "http://ssd.jpl.nasa.gov/sbdb.cgi?sstr=3596683",
    "absolute_magnitude_h": 23.9,
    "estimated_diameter": {
        "kilometers": {
            "estimated_diameter_min": 0.04411182,
            "estimated_diameter_max": 0.0986370281
        },
        "meters": {
            "estimated_diameter_min": 44.1118199997,
            "estimated_diameter_max": 98.6370281305
        },
        "miles": {
            "estimated_diameter_min": 0.0274098057,
            "estimated_diameter_max": 0.0612901888
        },
        "feet": {
            "estimated_diameter_min": 144.7238235278,
            "estimated_diameter_max": 323.6123073718
        }
    },
    "is_potentially_hazardous_asteroid": false,
    "close_approach_data": [
        {
            "close_approach_date": "1925-10-18",
            "close_approach_date_full": "1925-Oct-18 21:12",
            "epoch_date_close_approach": -1394938080000,
            "relative_velocity": {
                "kilometers_per_second": "6.1788351902",
                "kilometers_per_hour": "22243.8066845619",
                "miles_per_hour": "13821.4364368602"
            },
            "miss_distance": {
                "astronomical": "1.8652924492",
                "lunar": "725.5987627388",
                "kilometers": "279043777.327403204",
                "miles": "173389763.0411000552"
            },
            "orbiting_body": "Juptr"
        },
        {
            "close_approach_date": "2012-02-04",
            "close_approach_date_full": "2012-Feb-04 08:57",
            "epoch_date_close_approach": 1328345820000,
            "relative_velocity": {
                "kilometers_per_second": "10.4003649233",
                "kilometers_per_hour": "37441.3137239369",
                "miles_per_hour": "23264.5762969651"
            },
            "miss_distance": {
                "astronomical": "0.038007397",
                "lunar": "14.784877433",
                "kilometers": "5685825.63544439",
                "miles": "3533008.222096982"
            },
            "orbiting_body": "Earth"
        }
    ],
    "orbital_data": {
        "orbit_id": "10",
        "orbit_determination_date": "2017-04-06 08:51:10",
        "first_observation_date": "2012-01-27",
        "last_observation_date": "2012-03-04",
        "data_arc_in_days": 37,
        "observations_used": 46,
        "orbit_uncertainty": "7",
        "minimum_orbit_intersection": ".0286278",
        "jupiter_tisserand_invariant": "3.196",
        "epoch_osculation": "2459000.5",
        "eccentricity": ".5887856427208844",
        "semi_major_axis": "2.464910635427285",
        "inclination": "12.82615307740446",
        "ascending_node_longitude": "130.7114389746716",
        "orbital_period": "1413.514262426432",
        "perihelion_distance": "1.013606642697688",
        "perihelion_argument": "358.1105772982182",
        "aphelion_distance": "3.916214628156883",
        "perihelion_time": "2458783.733651579217",
        "mean_anomaly": "55.20700250843308",
        "mean_motion": ".2546843774904864",
        "equinox": "J2000",
        "orbit_class": {
            "orbit_class_type": "APO",
            "orbit_class_description": "Near-Earth asteroid orbits which cross the Earth’s orbit similar to that of 1862 Apollo",
            "orbit_class_range": "a (semi-major axis) > 1.0 AU; q (perihelion) < 1.017 AU"
        }
    },
    "is_sentry_object": false
}